ONEWEB-0216             
1 48801U 21045AL  23310.88753114 -.00000084  00000+0 -25712-3 0  9992
2 48801  87.8968  89.0031 0001662  83.6530 276.4790 13.15544438118968
ONEWEB-0239             
1 48802U 21045AM  23310.89229900  .00000000  00000+0 -35020-4 0  9996
2 48802  87.8977  88.9580 0000593  89.8159 270.3039 13.15550606119002
ONEWEB-0249             
1 48967U 21060A   23311.35420746  .00000094  00000+0  21194-3 0  9996
2 48967  87.9080  58.4081 0001659 101.8841 258.2476 13.16594672115520
ONEWEB-0250             
1 48968U 21060B   23311.35843076  .00004804  00000+0  12531-1 0  9998
2 48968  87.9082  58.3923 0001247 106.6964 253.4304 13.16575548115505
ONEWEB-0252             
1 48970U 21060D   23311.00590217  .00000084  00000+0  18560-3 0  9995
2 48970  87.9089  58.4706 0001669  95.1141 265.0180 13.16595871115526
ONEWEB-0253             
1 48971U 21060E   23311.37532407  .00001955  00000+0  50798-2 0  9999
2 48971  87.9009  58.4424 0001230  96.8205 263.3066 13.16586286115499
ONEWEB-0254             
1 48972U 21060F   23311.00377329  .00000134  00000+0  31805-3 0  9997
2 48972  87.9084  58.4605 0001368  94.7785 265.3502 13.16598253115445
ONEWEB-0255             
1 48973U 21060G   23310.81379088  .00000101  00000+0  22970-3 0  9997
2 48973  87.9080  58.5338 0001590 103.8426 256.2882 13.16595834114213
